FENGYUN 1C DEB          
1 31167U 99025BHV 17345.55953460  .00001637  00000-0  41075-3 0  9997
2 31167  99.0091 208.3688 0055389 222.0262 137.6675 14.51951569558806
